#dP2019  4 28  0  0  0.00000000      96 __u+U IGS08 FIT  IAC
## 2051      0.00000000   900.00000000 58601 0.0000000000000
+   97   C01C02C03C04C05C06C07C08C09C10C11C12C13C14C16E01E02
+        E03E04E05E07E08E09E11E12E13E14E15E18E19E21E24E25E26
+        E27E30E31E33E36G01G02G03G04G05G06G07G08G09G10G11G12
+        G13G14G15G16G17G18G19G20G21G22G23G24G25G26G27G28G29
+        G30G31G32J01J02J03R01R02R03R04R05R07R08R09R10R11R13
+        R14R15R16R17R18R19R20R21R22R23R24R26  0  0  0  0  0
++        12 12 12 12  0  8  8  9  8  8  8  8  8  7  8  4  4
++         4  4  4  4  4  5  4  4  5  4  5  4  4  4  4  4  4
++         5  5  4  5  4  3  3  3  4  3  3  3  3  3  3  3  3
++         3  3  3  3  3  3  3  3  3  3  3  3  3  3  3  3  3
++         3  3  3  9  9  9  5  5  5  5  5  5  5  5  5  5  6
++         5  5  6  5  5  6  6  5  5  5  6  8  0  0  0  0  0
%c M  cc GPS ccc cccc cccc cccc cccc ccccc ccccc ccccc ccccc
%c cc cc ccc ccc cccc cccc cccc cccc ccccc ccccc ccccc ccccc
%f  1.2500000  1.025000000  0.00000000000  0.000000000000000
%f  0.0000000  0.000000000  0.00000000000  0.000000000000000
%i    0    0    0    0      0      0      0      0         0
%i    0    0    0    0      0      0      0      0         0
/* INFORMATION & ANALYSIS CENTER (IAC)            FINAL DATA
/* S/V CLOCKS ARE ALIGNED TO GPS & GLONASS TIME RESPECTIVELY
/* USING THE BROADCAST EPHEMERIS                            
/* PCV:IGS14_2045 OL/AL:FES2004  NONE     YN ORB:CoN CLK:CoN
*  2019 04 28  5 15  0.00000000
PC01 -32254.379168  27129.895077   1032.799769    515.319701
PC02   4354.454092  41913.349192  -1162.500040    193.413250
PC03 -14790.261921  39443.513859    112.083059    214.653347
PC04 -39622.106512  14419.759614    436.921701   -128.930375
PC05      0.000000      0.000000      0.000000 999999.999999
PC06  -8405.130675  32623.443858 -24793.439430    749.467554
PC07 -17694.855524  21964.199911  31351.254346   -325.317820
PC08 -24194.979699  33987.221223  -6958.860946    151.306268
PC09   2847.761913  40363.276235 -11003.587395    720.537605
PC10  -1070.740334  25975.905836  33346.207876   -702.769113
PC11   9084.806895  19891.427136 -17313.669842   -123.818982
PC12  -8057.593391  25588.029264   7887.142025    617.283796
PC13 -12024.327960  34993.813292 -20391.247692   -679.479682
PC14  12312.300594  20819.759817 -13809.351852    650.485707
PC16  -4333.627316  35576.734541 -22028.627049   -639.163499
PE01  16419.475509 -13803.546523 -20402.710854   -593.084981
PE02 -16382.753938  13813.079206  20417.893370     57.853789
PE03  -6541.952117  19013.347682 -21719.645099   -160.086963
PE04  -9523.295066 -26842.694229   8072.623510   -270.522017
PE05 -18920.784564    -39.541618 -22755.717629     66.537541
PE07  20176.526191  18959.247734  10494.795198   -177.153031
PE08   9875.445850  26738.220139  -7995.372367   6365.123565
PE09 -20263.998978 -18813.999259 -10532.917675   6456.175344
PE11 -13277.623125  -9828.776052  24560.997652   5702.162369
PE12   1638.607731 -25094.502266  15638.806169   6423.057637
PE13  13172.176258   9860.091821 -24597.031742    386.254553
PE14  -5318.504156 -26369.661381   2200.179322   -545.989805
PE15  -1282.758448  24911.266050 -15918.490069    912.327325
PE18  15776.482462  20325.640352 -16231.932933   -644.419987
PE19   7947.616313 -17429.700843  22576.609596     -6.787362
PE21  29072.152563  -3544.489404  -4311.195414   -531.257169
PE24 -24649.748377  -8756.325449 -13885.481726   6109.739344
PE25 -29083.012571   3501.617760   4245.515914   1821.170441
PE26  20156.946108 -10778.374666 -18803.135168   4632.074845
PE27  24436.479244   8786.813466  14202.514586    481.029118
PE30   5745.962717  15962.675689  24240.878104   4915.887389
PE31  -5470.508565 -15932.125965 -24338.136155   -464.280924
PE33  15019.972412 -25429.167079  -2086.725629   -470.440402
PE36 -19951.970078  10992.589135  18902.091921    718.876885
PG01 -10711.450114  20645.677539 -12696.852968     -3.855810
PG02  21224.197017 -13636.483179  -7435.511489   -199.865525
PG03  -3352.793614  14886.353481 -21781.594644    188.324901
PG04  11021.728856  21797.923307  10446.518754    154.492884
PG05  21602.306673  -4388.477430  14844.304224      1.050415
PG06  19827.602686  -1575.567825 -17571.744482    219.694439
PG07   2658.620679  16784.000649  20549.324402    -13.469743
PG08  -7256.174061  19601.286073  16301.390186   -141.548236
PG09   8385.234643  24820.755992   4289.417710    421.195262
PG10 -23698.133288 -11368.054100   4564.584154     61.361159
PG11  -8141.494903  25269.091422  -3303.083143   -617.864754
PG12   4936.043306 -14003.035648 -22240.303555    247.366311
PG13  12877.845770 -11755.050790  19911.337763    -65.988116
PG14 -15255.194242  -5340.633461 -20793.003009    -82.738246
PG15   5159.713069 -21172.988502  14653.340613   -316.028492
PG16 -21090.969048   2394.349913  16048.588924    -35.931734
PG17  13559.306944  14764.393499 -17065.304252     45.986450
PG18 -16679.752280  20237.527193  -4193.673045     48.254729
PG19  14931.230102   6042.230953 -21401.683054   -325.515597
PG20 -18205.894744 -14019.780957  13343.205570    524.315784
PG21  -8259.255730 -13912.269184  21885.020638   -203.606509
PG22 -11477.442939  12599.090849 -20122.095710   -691.520319
PG23    377.942368  25330.712264  -6910.790680   -188.457020
PG24  12645.211667 -21417.431176  -8995.653537    -65.339990
PG25  -8905.236157 -16757.218993 -18900.112400   -750.508960
PG26 -25599.633553  -2957.547548   6782.514542    187.381069
PG27 -12943.114662   8610.363100  21385.185052   -118.693670
PG28  21893.071542  14001.719101   5831.737239    767.681982
PG29  -3374.468716 -26344.843802   -125.536646    214.912738
PG30  13375.218772   9014.582838  21142.788180    -94.531324
PG31 -20961.522869   2439.109058 -16391.170748     41.996480
PG32 -15502.467335 -11401.545077 -18299.022686   -112.348000
PJ01 -24128.335539  17868.519850 -24981.859561   -315.958919
PJ02 -30183.599498  26613.068055  17446.416952      2.136150
PJ03 -26522.508470  25584.634290  25520.752074     -0.184642
PR01   6837.738634  -8870.060366  22924.280296     42.998164
PR02 -10021.151796 -19635.301381  12922.663509    365.879013
PR03 -18686.908847 -16861.424674  -4237.819710     -5.642573
PR04 -16252.672904  -3822.646039 -19269.400904    304.176057
PR05  -4835.306523  10446.480974 -22745.691576     27.033056
PR07  18778.349667  16540.353064   4888.019478    -19.040975
PR08  16567.691756   4421.183390  18938.717228     18.019788
PR09   3011.049957  10758.704849  22941.712976     66.784565
PR10  17987.471630   4327.419381  17575.955460     48.611606
PR11  24955.906553  -5271.944000   1151.108671    -64.346234
PR13  -1086.903198 -10933.863477 -23042.272585    -22.979532
PR14 -18071.271865  -4336.623118 -17459.824926     38.385944
PR15 -24964.917499   4842.001689  -2002.896560    101.619345
PR16 -17352.259817  11669.052299  14665.122823      9.931759
PR17  -6620.855341 -12057.948935  21483.184295    223.737397
PR18 -12060.168726   5760.031140  21725.988100     -8.769499
PR19 -11521.839841  20334.017824  10214.059100    -27.787250
PR20  -3548.644896  23567.653945  -9009.035297   -376.340853
PR21   6816.063801  11487.474689 -21733.773799    -44.910060
PR22  12396.412540  -8663.594904 -20576.980227    -16.535174
PR23   9594.837802 -23060.634268  -5210.687808    224.553914
PR24   2195.166290 -23122.281091  10548.270585   -179.824914
PR26  -4416.329195  24273.396312  -6505.019580     -9.873459
EOF
